OBJECT_NAME,OBJECT_ID,EPOCH,MEAN_MOTION,ECCENTRICITY,INCLINATION,RA_OF_ASC_NODE,ARG_OF_PERICENTER,MEAN_ANOMALY,EPHEMERIS_TYPE,CLASSIFICATION_TYPE,NORAD_CAT_ID,ELEMENT_SET_NO,REV_AT_EPOCH,BSTAR,MEAN_MOTION_DOT,MEAN_MOTION_DDOT
IRIDIUM 33,1997-051C,2024-07-07T18:49:14.765088,14.34410002,.0009895,86.3871,287.5185,116.5908,243.6303,0,U,24946,999,40337,.14213E-3,.42E-5,0
IRIDIUM 33 DEB,1997-051L,2024-07-08T04:06:40.477248,14.40983528,.0013401,86.4013,281.5503,84.1716,276.1010,0,U,33773,999,80820,.43944E-3,.1432E-4,0
IRIDIUM 33 DEB,1997-051N,2024-07-07T06:40:40.722240,14.38624727,.0017223,86.3645,272.4086,95.0086,323.1811,0,U,33775,999,80606,.56899E-3,.1764E-4,0
IRIDIUM 33 DEB,1997-051P,2024-07-07T20:06:38.727936,14.36347872,.001674,86.4053,299.9636,110.6931,15.1862,0,U,33776,999,80579,.39297E-3,.117E-4,0
IRIDIUM 33 DEB,1997-051Q,2024-07-08T04:25:43.296960,14.48385653,.0009165,86.3807,261.1845,211.2705,148.7955,0,U,33777,999,80956,.64054E-3,.2417E-4,0
IRIDIUM 33 DEB,1997-051T,2024-07-07T17:46:42.599712,14.39132539,.0014623,86.3417,254.4640,96.9808,24.8604,0,U,33850,999,80624,.52686E-3,.1651E-4,0
IRIDIUM 33 DEB,1997-051W,2024-07-07T13:22:56.356608,13.94864003,.0224786,85.9998,218.4122,38.4748,111.9027,0,U,33853,999,78039,.1636E-2,.2728E-4,0
IRIDIUM 33 DEB,1997-051AC,2024-07-08T04:27:41.110272,14.62223365,.0038657,86.3350,243.4531,33.3100,327.0532,0,U,33859,999,80776,.2847E-2,.14533E-3,0
IRIDIUM 33 DEB,1997-051AD,2024-07-07T05:01:45.235776,14.54778689,.0008437,86.3875,256.6614,317.3920,96.3499,0,U,33860,999,81074,.11738E-2,.5052E-4,0
IRIDIUM 33 DEB,1997-051AF,2024-07-07T17:16:20.186976,14.56757983,.0061047,86.4108,265.8604,59.2090,99.6774,0,U,33862,999,81174,.56289E-3,.2604E-4,0
IRIDIUM 33 DEB,1997-051AH,2024-07-07T11:05:53.765376,14.73063314,.0011272,86.2737,165.0285,140.9533,342.1680,0,U,33864,999,81291,.19412E-2,.12528E-3,0
IRIDIUM 33 DEB,1997-051AK,2024-07-07T09:19:31.963296,14.20531902,.0112391,86.3034,313.5513,36.3119,34.6661,0,U,33866,999,79367,.10804E-2,.2491E-4,0
IRIDIUM 33 DEB,1997-051AL,2024-07-08T04:22:11.051040,14.76843722,.0022733,86.4143,234.0863,110.2922,250.0744,0,U,33867,999,81673,.24144E-2,.1707E-3,0
IRIDIUM 33 DEB,1997-051AP,2024-07-07T07:42:48.945312,14.40674772,.0024096,86.3769,281.6509,116.3906,307.6212,0,U,33870,999,80585,.88617E-3,.2857E-4,0
IRIDIUM 33 DEB,1997-051AS,2024-07-07T11:49:01.638048,15.24655958,.0010508,86.3437,199.7790,114.6761,245.5580,0,U,33873,999,81632,.71778E-2,.181538E-2,0
IRIDIUM 33 DEB,1997-051AT,2024-07-07T17:43:20.828928,14.56944974,.003329,86.2805,245.0997,294.4495,205.0670,0,U,33874,999,80275,.29081E-2,.13187E-3,0
IRIDIUM 33 DEB,1997-051BA,2024-07-07T09:38:43.068768,14.40564366,.0063792,86.3904,331.2301,112.7123,301.3848,0,U,33881,999,79921,.18434E-2,.6035E-4,0
IRIDIUM 33 DEB,1997-051BD,2024-07-08T04:18:54.624096,14.60245505,.0009452,86.3768,242.8160,330.9002,90.4335,0,U,33884,999,81181,.12567E-2,.6086E-4,0
IRIDIUM 33 DEB,1997-051BF,2024-07-07T08:03:18.933984,14.34829353,.0015408,86.3833,287.2255,151.0537,271.3349,0,U,33886,999,80543,.25653E-3,.748E-5,0
IRIDIUM 33 DEB,1997-051BG,2024-07-07T14:38:51.488160,14.36212748,.0007872,86.3045,228.5114,138.9489,343.7575,0,U,33887,999,80647,.17079E-3,.518E-5,0
IRIDIUM 33 DEB,1997-051BH,2024-07-07T16:31:27.111936,14.98175406,.0009878,86.3063,231.1042,1.0443,359.0806,0,U,33888,999,80795,.53158E-2,.63599E-3,0
IRIDIUM 33 DEB,1997-051BM,2024-07-07T11:04:18.727104,15.30126628,.0011124,86.3255,192.5293,143.3800,216.8211,0,U,33952,999,81612,.79547E-2,.239215E-2,0
IRIDIUM 33 DEB,1997-051BN,2024-07-08T05:37:58.479168,14.46784784,.0021634,86.3893,278.9523,52.1654,7.0644,0,U,33953,999,80772,.12783E-2,.466E-4,0
IRIDIUM 33 DEB,1997-051BU,2024-07-07T18:21:32.099040,14.64629269,.0055324,86.3602,285.7587,205.1970,154.6543,0,U,33959,999,80344,.19219E-2,.10471E-3,0
IRIDIUM 33 DEB,1997-051BV,2024-07-07T23:10:14.448864,14.60668213,.0005793,86.2714,171.0364,91.6329,322.2142,0,U,33960,999,81181,.18599E-2,.908E-4,0
IRIDIUM 33 DEB,1997-051CA,2024-07-07T07:59:21.537888,14.82880669,.001268,86.3554,223.4323,99.3308,260.9349,0,U,33965,999,81324,.29545E-2,.24048E-3,0
IRIDIUM 33 DEB,1997-051CB,2024-07-08T04:31:22.939680,14.45310531,.0009713,86.3930,269.4718,140.3791,285.5656,0,U,33966,999,80907,.63065E-3,.2234E-4,0
IRIDIUM 33 DEB,1997-051CE,2024-07-08T04:12:45.019584,14.44638265,.0009474,86.3456,244.0594,64.2651,295.9528,0,U,34071,999,80833,.65607E-3,.2291E-4,0
IRIDIUM 33 DEB,1997-051CL,2024-07-07T06:50:46.774176,14.51086217,.0011422,86.3911,279.5449,4.8618,52.9521,0,U,34077,999,80702,.13416E-2,.5338E-4,0
IRIDIUM 33 DEB,1997-051CN,2024-07-08T04:24:40.008096,14.62278906,.0006589,86.3819,242.5384,357.6746,60.3825,0,U,34079,999,81286,.15895E-2,.8042E-4,0
IRIDIUM 33 DEB,1997-051CV,2024-07-07T10:48:26.405568,14.71124256,.001035,86.3725,266.1563,16.6244,111.3031,0,U,34086,999,1518,.31945E-2,.19723E-3,0
IRIDIUM 33 DEB,1997-051CX,2024-07-07T17:45:53.447616,14.61366019,.0007792,86.3946,265.0138,240.9111,236.8906,0,U,34088,999,81051,.19226E-2,.9533E-4,0
IRIDIUM 33 DEB,1997-051DA,2024-07-07T07:21:05.339520,14.47473315,.0058865,86.3626,299.3315,304.2608,55.3028,0,U,34091,999,80204,.21075E-2,.793E-4,0
IRIDIUM 33 DEB,1997-051DG,2024-07-08T01:31:21.066528,14.27178686,.0086844,86.2029,230.7720,253.8443,105.3178,0,U,34097,999,79704,.79355E-3,.2033E-4,0
IRIDIUM 33 DEB,1997-051DM,2024-07-07T22:00:39.860928,14.59177510,.0069588,86.3656,334.7124,148.1148,335.2823,0,U,34102,999,79796,.84067E-2,.41191E-3,0
IRIDIUM 33 DEB,1997-051DR,2024-07-07T13:03:53.943840,14.76393275,.0004917,86.3532,215.9505,270.5737,218.7177,0,U,34106,999,81359,.24507E-2,.17075E-3,0
IRIDIUM 33 DEB,1997-051DS,2024-07-07T08:39:25.881408,14.86704402,.0003647,86.3735,223.5683,314.5511,57.8373,0,U,34107,999,81445,.13258E-2,.11818E-3,0
IRIDIUM 33 DEB,1997-051DY,2024-07-07T11:09:55.318176,14.35510049,.0059611,86.2161,204.3182,13.8069,346.4739,0,U,34145,999,80110,.13952E-2,.4113E-4,0
IRIDIUM 33 DEB,1997-051DZ,2024-07-07T14:23:09.447360,14.42444172,.0033829,86.2855,219.6984,157.1788,325.4179,0,U,34146,999,80545,.78016E-3,.2619E-4,0
IRIDIUM 33 DEB,1997-051EN,2024-07-07T12:31:32.810592,14.35855064,.0029189,86.3510,270.7847,197.7109,162.3073,0,U,34159,999,80443,.51661E-3,.1522E-4,0
IRIDIUM 33 DEB,1997-051ES,2024-07-07T14:29:17.412864,14.42664425,.002416,86.3284,229.2307,75.3759,42.9623,0,U,34350,999,80742,.40024E-3,.1355E-4,0
IRIDIUM 33 DEB,1997-051FA,2024-07-07T12:10:35.631840,14.96013424,.002509,86.3101,195.5250,99.5979,54.2267,0,U,34358,999,81258,.55986E-2,.63698E-3,0
IRIDIUM 33 DEB,1997-051FJ,2024-07-07T06:26:41.614080,14.45142008,.0024448,86.3720,275.4137,94.1822,319.7439,0,U,34366,999,80595,.12567E-2,.4432E-4,0
IRIDIUM 33 DEB,1997-051FT,2024-07-07T00:21:38.656800,14.15947015,.0104964,86.4299,33.6371,350.6572,162.7003,0,U,34375,999,79294,.43423E-3,.92E-5,0
IRIDIUM 33 DEB,1997-051FU,2024-07-07T09:45:26.345952,14.48051375,.0035729,86.3018,239.0770,139.0715,221.3181,0,U,34376,999,80391,.15238E-2,.5729E-4,0
IRIDIUM 33 DEB,1997-051GB,2024-07-07T10:02:56.609664,14.67079224,.0017808,86.4032,247.7927,156.9658,216.5162,0,U,34486,999,81238,.1425E-2,.804E-4,0
IRIDIUM 33 DEB,1997-051GC,2024-07-07T14:12:47.484000,14.41671551,.0033577,86.3432,237.2296,61.9207,91.1966,0,U,34487,999,80706,.2516E-3,.845E-5,0
IRIDIUM 33 DEB,1997-051GD,2024-07-08T00:44:24.173376,14.73897584,.0022022,86.3416,191.3623,88.9386,271.4354,0,U,34488,999,81532,.21441E-2,.14148E-3,0
IRIDIUM 33 DEB,1997-051GH,2024-07-07T10:53:31.829568,14.04592953,.0259729,86.4905,182.4529,102.7508,47.1759,0,U,34492,999,77652,.54373E-2,.11775E-3,0
IRIDIUM 33 DEB,1997-051GN,2024-07-07T06:05:34.439712,14.23911641,.0084236,86.2787,275.3343,220.0501,195.2991,0,U,34497,999,79423,.85601E-3,.2052E-4,0
IRIDIUM 33 DEB,1997-051GU,2024-07-07T23:40:01.308000,14.89423192,.0010008,86.3073,157.2714,196.1405,163.9504,0,U,34503,999,81636,.38377E-2,.36676E-3,0
IRIDIUM 33 DEB,1997-051GZ,2024-07-07T19:54:50.258304,14.31656282,.0073159,86.3757,323.1021,82.8480,278.1025,0,U,34508,999,79807,.1631E-2,.4495E-4,0
IRIDIUM 33 DEB,1997-051HC,2024-07-07T14:00:55.821024,14.94671024,.0024005,86.3669,249.8934,161.7814,340.8197,0,U,34511,999,81008,.60464E-2,.66466E-3,0
IRIDIUM 33 DEB,1997-051HN,2024-07-07T06:24:04.795488,14.52618273,.0004957,86.3820,259.0966,202.9036,157.1950,0,U,34521,999,80841,.91903E-3,.378E-4,0
IRIDIUM 33 DEB,1997-051HR,2024-07-07T13:43:47.747424,15.17607555,.0023011,86.3193,212.3604,142.8788,217.4050,0,U,34524,999,81146,.75449E-2,.15564E-2,0
IRIDIUM 33 DEB,1997-051HS,2024-07-08T05:25:10.427232,14.40142721,.0005104,86.3729,269.3095,40.7492,12.9184,0,U,34525,999,80613,.45234E-3,.1448E-4,0
IRIDIUM 33 DEB,1997-051HW,2024-07-07T05:21:13.163328,14.39462671,.0007972,86.3637,258.2638,117.3755,242.8256,0,U,34529,999,80607,.25384E-3,.81E-5,0
IRIDIUM 33 DEB,1997-051JF,2024-07-07T08:08:12.418368,14.36924760,.0037275,86.2755,233.7877,240.2725,242.5135,0,U,34538,999,80222,.86466E-3,.2597E-4,0
IRIDIUM 33 DEB,1997-051JH,2024-07-07T11:50:42.161856,14.61477777,.0023072,86.3218,184.0381,169.1789,321.7023,0,U,34540,999,81340,.10931E-2,.5458E-4,0
IRIDIUM 33 DEB,1997-051JU,2024-07-08T01:56:05.955072,15.52516127,.0011182,86.3368,229.3043,193.1501,166.9469,0,U,34643,999,81003,.11311E-1,.750221E-2,0
IRIDIUM 33 DEB,1997-051JZ,2024-07-07T06:48:44.627040,13.97412764,.0217494,86.4090,130.8087,128.3845,233.7090,0,U,34648,999,77606,.32698E-2,.5632E-4,0
IRIDIUM 33 DEB,1997-051KC,2024-07-07T11:12:43.080192,14.13832464,.0174284,86.2899,1.3357,73.5325,288.4931,0,U,34651,999,78465,.27163E-2,.5967E-4,0
IRIDIUM 33 DEB,1997-051KD,2024-07-07T09:23:42.081792,14.54002588,.0030136,86.3342,211.5274,267.3289,158.2607,0,U,34652,999,80928,.76473E-3,.3262E-4,0
IRIDIUM 33 DEB,1997-051KM,2024-07-08T04:09:09.074880,14.49818958,.0007219,86.3796,263.1172,344.3377,45.2036,0,U,34690,999,80528,.85264E-3,.3308E-4,0
IRIDIUM 33 DEB,1997-051KQ,2024-07-07T11:48:15.369120,14.73014241,.0022581,86.3335,189.9727,100.4581,54.3669,0,U,34693,999,81094,.2149E-2,.13896E-3,0
